{
  "links" : {
    "next" : "https://api.nasa.gov/neo/rest/v1/feed?start_date=2009-09-16&end_date=2009-09-16&detailed=true&api_key=t0TVs3DtDT2H8Oy2Zy8m2eVrNsAVKAexjcZXUckd",
    "prev" : "https://api.nasa.gov/neo/rest/v1/feed?start_date=2009-09-14&end_date=2009-09-14&detailed=true&api_key=t0TVs3DtDT2H8Oy2Zy8m2eVrNsAVKAexjcZXUckd",
    "self" : "https://api.nasa.gov/neo/rest/v1/feed?start_date=2009-09-15&end_date=2009-09-15&detailed=true&api_key=t0TVs3DtDT2H8Oy2Zy8m2eVrNsAVKAexjcZXUckd"
  },
  "element_count" : 5,
  "near_earth_objects" : {
    "2009-09-15" : [ {
      "links" : {
        "self" : "https://api.nasa.gov/neo/rest/v1/neo/2420738?api_key=t0TVs3DtDT2H8Oy2Zy8m2eVrNsAVKAexjcZXUckd"
      },
      "neo_reference_id" : "2420738",
      "name" : "420738 (2012 TS)",
      "nasa_jpl_url" : "http://ssd.jpl.nasa.gov/sbdb.cgi?sstr=2420738",
      "absolute_magnitude_h" : 20.8,
      "estimated_diameter" : {
        "kilometers" : {
          "estimated_diameter_min" : 0.1838886721,
          "estimated_diameter_max" : 0.411187571
        },
        "meters" : {
          "estimated_diameter_min" : 183.8886720703,
          "estimated_diameter_max" : 411.1875710413
        },
        "miles" : {
          "estimated_diameter_min" : 0.1142630881,
          "estimated_diameter_max" : 0.2555000322
        },
        "feet" : {
          "estimated_diameter_min" : 603.309310875,
          "estimated_diameter_max" : 1349.040630575
        }
      },
      "is_potentially_hazardous_asteroid" : false,
      "close_approach_data" : [ {
        "close_approach_date" : "2009-09-15",
        "epoch_date_close_approach" : 1252998000000,
        "relative_velocity" : {
          "kilometers_per_second" : "14.2144809882",
          "kilometers_per_hour" : "51172.1315576982",
          "miles_per_hour" : "31796.3725226153"
        },
        "miss_distance" : {
          "astronomical" : "0.3427525233",
          "lunar" : "133.3307342529",
          "kilometers" : "51275048",
          "miles" : "31860838"
        },
        "orbiting_body" : "Earth"
      } ],
      "orbital_data" : {
        "orbit_id" : "103",
        "orbit_determination_date" : "2017-04-06 09:21:07",
        "orbit_uncertainty" : "0",
        "minimum_orbit_intersection" : ".0913441",
        "jupiter_tisserand_invariant" : "6.085",
        "epoch_osculation" : "2458000.5",
        "eccentricity" : ".1133894991092726",
        "semi_major_axis" : ".9905192581079844",
        "inclination" : "16.45690372081749",
        "ascending_node_longitude" : "190.8281374089673",
        "orbital_period" : "360.0748698792846",
        "perihelion_distance" : ".8782047755730317",
        "perihelion_argument" : "20.50418115872342",
        "aphelion_distance" : "1.102833740642937",
        "perihelion_time" : "2457857.960262376763",
        "mean_anomaly" : "142.5100995289355",
        "mean_motion" : ".9997920713564108",
        "equinox" : "J2000"
      }
    }, {
      "links" : {
        "self" : "https://api.nasa.gov/neo/rest/v1/neo/3468431?api_key=t0TVs3DtDT2H8Oy2Zy8m2eVrNsAVKAexjcZXUckd"
      },
      "neo_reference_id" : "3468431",
      "name" : "(2009 SA100)",
      "nasa_jpl_url" : "http://ssd.jpl.nasa.gov/sbdb.cgi?sstr=3468431",
      "absolute_magnitude_h" : 23.9,
      "estimated_diameter" : {
        "kilometers" : {
          "estimated_diameter_min" : 0.04411182,
          "estimated_diameter_max" : 0.0986370281
        },
        "meters" : {
          "estimated_diameter_min" : 44.1118199997,
          "estimated_diameter_max" : 98.6370281305
        },
        "miles" : {
          "estimated_diameter_min" : 0.0274098057,
          "estimated_diameter_max" : 0.0612901888
        },
        "feet" : {
          "estimated_diameter_min" : 144.7238235278,
          "estimated_diameter_max" : 323.6123073718
        }
      },
      "is_potentially_hazardous_asteroid" : false,
      "close_approach_data" : [ {
        "close_approach_date" : "2009-09-15",
        "epoch_date_close_approach" : 1252998000000,
        "relative_velocity" : {
          "kilometers_per_second" : "9.4936594903",
          "kilometers_per_hour" : "34177.1741649127",
          "miles_per_hour" : "21236.3669137481"
        },
        "miss_distance" : {
          "astronomical" : "0.0234451309",
          "lunar" : "9.1201562881",
          "kilometers" : "3507341.75",
          "miles" : "2179361"
        },
        "orbiting_body" : "Earth"
      } ],
      "orbital_data" : {
        "orbit_id" : "8",
        "orbit_determination_date" : "2017-04-06 08:59:50",
        "orbit_uncertainty" : "7",
        "minimum_orbit_intersection" : ".0124017",
        "jupiter_tisserand_invariant" : "5.447",
        "epoch_osculation" : "2458000.5",
        "eccentricity" : ".285888780516134",
        "semi_major_axis" : "1.143475352836107",
        "inclination" : "3.826655010154704",
        "ascending_node_longitude" : "160.6644347181674",
        "orbital_period" : "446.6204850252032",
        "perihelion_distance" : ".8165685786635362",
        "perihelion_argument" : "109.7882246128808",
        "aphelion_distance" : "1.470382127008678",
        "perihelion_time" : "2458153.286378663369",
        "mean_anomaly" : "236.8460064797323",
        "mean_motion" : ".8060534885221059",
        "equinox" : "J2000"
      }
    }, {
      "links" : {
        "self" : "https://api.nasa.gov/neo/rest/v1/neo/3520662?api_key=t0TVs3DtDT2H8Oy2Zy8m2eVrNsAVKAexjcZXUckd"
      },
      "neo_reference_id" : "3520662",
      "name" : "(2010 JR34)",
      "nasa_jpl_url" : "http://ssd.jpl.nasa.gov/sbdb.cgi?sstr=3520662",
      "absolute_magnitude_h" : 27.7,
      "estimated_diameter" : {
        "kilometers" : {
          "estimated_diameter_min" : 0.0076657557,
          "estimated_diameter_max" : 0.0171411509
        },
        "meters" : {
          "estimated_diameter_min" : 7.6657557353,
          "estimated_diameter_max" : 17.1411509231
        },
        "miles" : {
          "estimated_diameter_min" : 0.0047632783,
          "estimated_diameter_max" : 0.0106510141
        },
        "feet" : {
          "estimated_diameter_min" : 25.1501180466,
          "estimated_diameter_max" : 56.2373735944
        }
      },
      "is_potentially_hazardous_asteroid" : false,
      "close_approach_data" : [ {
        "close_approach_date" : "2009-09-15",
        "epoch_date_close_approach" : 1252998000000,
        "relative_velocity" : {
          "kilometers_per_second" : "5.6840256012",
          "kilometers_per_hour" : "20462.4921642788",
          "miles_per_hour" : "12714.5968672987"
        },
        "miss_distance" : {
          "astronomical" : "0.1898823838",
          "lunar" : "73.8642501831",
          "kilometers" : "28406000",
          "miles" : "17650670"
        },
        "orbiting_body" : "Earth"
      } ],
      "orbital_data" : {
        "orbit_id" : "8",
        "orbit_determination_date" : "2017-04-06 08:57:36",
        "orbit_uncertainty" : "5",
        "minimum_orbit_intersection" : ".00375923",
        "jupiter_tisserand_invariant" : "6.274",
        "epoch_osculation" : "2458000.5",
        "eccentricity" : ".1445646649874949",
        "semi_major_axis" : ".9591973291810276",
        "inclination" : ".7199002969586799",
        "ascending_node_longitude" : "36.95326471791901",
        "orbital_period" : "343.1313256474913",
        "perihelion_distance" : ".8205312886310725",
        "perihelion_argument" : "316.3040057127574",
        "aphelion_distance" : "1.097863369730983",
        "perihelion_time" : "2457834.035157941832",
        "mean_anomaly" : "174.6484178553424",
        "mean_motion" : "1.049160986163759",
        "equinox" : "J2000"
      }
    } ]
  }
}